CSS (TIANHE)            
1 48274U 21035A   23301.54916553  .00016923  00000+0  20393-3 0  9993
2 48274  41.4710  63.9400 0004540 344.9705  15.0998 15.60393605142682
